{
  "norad_id": 57972,
  "name": "STARLINK-30505",
  "history": [
    {
      "epoch": "2026-03-28T17:16:05.768544Z",
      "apogee_km": 485.19545194200145,
      "perigee_km": 480.7460235740655,
      "latitude_deg": -1.415700320383115e-05,
      "longitude_deg": 143.62583083815628,
      "height_km": 482.68987179270977,
      "semi_major_axis_km": 6861.107737758033,
      "eccentricity": 0.00032425,
      "inclination_deg": 43.0027,
      "raan_deg": 228.7858,
      "arg_perigee_deg": 271.524,
      "mean_anomaly_deg": 88.524,
      "mean_motion_rev_day": 15.27606169
    }
  ]
}